{"type":"FeatureCollection","name":"GarisPantai_Magepanda_2024","crs":{"type":"name","properties":{"name":"urn:ogc:def:crs:OGC:1.3:CRS84"}},"features":[{"type":"Feature","properties":{"source":"GarisPantai_Magepanda_2024.gpkg","note":"Garis pantai referensi 2024; segmen batas tile artifisial dihapus dari geometri visual."},"geometry":{"type":"MultiLineString","coordinates":[[[122.04116191322807,-8.522676426555549],[122.04125174475648,-8.522676426555549],[122.04125174475648,-8.521508616686193],[122.04107208169965,-8.521508616686193],[122.04107208169965,-8.520520469873661],[122.04098225017124,-8.520520469873661],[122.04098225017124,-8.520340806816838],[122.04107208169965,-8.520340806816838],[122.04107208169965,-8.520071312231602],[122.04125174475648,-8.520071312231602],[122.04125174475648,-8.519801817646366],[122.0414314078133,-8.519801817646366],[122.0414314078133,-8.519711986117954],[122.04161107087013,-8.519711986117954],[122.04161107087013,-8.51953232306113],[122.04197039698377,-8.51953232306113],[122.04197039698377,-8.519352660004307],[122.04277888073949,-8.519352660004307],[122.04277888073949,-8.51953232306113],[122.04322803838154,-8.51953232306113],[122.04322803838154,-8.519711986117954],[122.0435873644952,-8.519711986117954],[122.0435873644952,-8.520789964458897],[122.04340770143837,-8.520789964458897],[122.04340770143837,-8.520969627515722],[122.0435873644952,-8.520969627515722],[122.0435873644952,-8.52132895362937],[122.04367719602361,-8.52132895362937],[122.04367719602361,-8.521149290572545],[122.04376702755202,-8.521149290572545],[122.04376702755202,-8.521688279743017],[122.04385685908044,-8.521688279743017],[122.04385685908044,-8.521508616686193],[122.04394669060883,-8.521508616686193],[122.04394669060883,-8.522047605856665],[122.04412635366566,-8.522047605856665],[122.04412635366566,-8.52222726891349],[122.04430601672249,-8.52222726891349],[122.04430601672249,-8.522586595027137],[122.04448567977931,-8.522586595027137],[122.04448567977931,-8.52276625808396],[122.04466534283614,-8.52276625808396],[122.04466534283614,-8.523305247254433],[122.04475517436455,-8.523305247254433],[122.04475517436455,-8.523125584197608],[122.04484500589297,-8.523125584197608],[122.04484500589297,-8.523484910311256],[122.04502466894978,-8.523484910311256],[122.04502466894978,-8.523844236424903],[122.0452043320066,-8.523844236424903],[122.0452043320066,-8.524203562538553],[122.04529416353502,-8.524203562538553],[122.04529416353502,-8.524293394066964],[122.04538399506343,-8.524293394066964],[122.04538399506343,-8.524383225595376],[122.04556365812026,-8.524383225595376],[122.04556365812026,-8.5245628886522],[122.0459229842339,-8.5245628886522],[122.0459229842339,-8.524652720180612],[122.04574332117708,-8.524652720180612],[122.04574332117708,-8.524742551709023],[122.0459229842339,-8.524742551709023],[122.0459229842339,-8.524922214765848],[122.04610264729072,-8.524922214765848],[122.04610264729072,-8.52510187782267],[122.04646197340438,-8.52510187782267],[122.04646197340438,-8.525281540879496],[122.04673146798962,-8.525281540879496],[122.04673146798962,-8.525461203936318],[122.04709079410326,-8.525461203936318],[122.04709079410326,-8.525640866993143],[122.04727045716008,-8.525640866993143],[122.04727045716008,-8.525820530049968],[122.04762978327373,-8.525820530049968],[122.04762978327373,-8.52600019310679],[122.04798910938737,-8.52600019310679],[122.04798910938737,-8.526090024635202],[122.04780944633056,-8.526090024635202],[122.04780944633056,-8.526179856163616],[122.04834843550103,-8.526179856163616],[122.04834843550103,-8.526269687692027],[122.0481687724442,-8.526269687692027],[122.0481687724442,-8.526359519220438],[122.04888742467149,-8.526359519220438],[122.04888742467149,-8.52644935074885],[122.04870776161468,-8.52644935074885],[122.04870776161468,-8.526539182277263],[122.04942641384197,-8.526539182277263],[122.04942641384197,-8.526629013805675],[122.04924675078514,-8.526629013805675],[122.04924675078514,-8.526718845334086],[122.04996540301244,-8.526718845334086],[122.04996540301244,-8.5268086768625],[122.04978573995562,-8.5268086768625],[122.04978573995562,-8.52689850839091],[122.05014506606926,-8.52689850839091],[122.05014506606926,-8.527078171447734],[122.05068405523974,-8.527078171447734],[122.05068405523974,-8.527168002976147],[122.05050439218292,-8.527168002976147],[122.05050439218292,-8.527257834504558],[122.05086371829657,-8.527257834504558],[122.05086371829657,-8.527437497561381],[122.05122304441021,-8.527437497561381],[122.05122304441021,-8.527617160618206],[122.05140270746703,-8.527617160618206],[122.05140270746703,-8.52779682367503],[122.05176203358069,-8.52779682367503],[122.05176203358069,-8.527976486731854],[122.0519416966375,-8.527976486731854],[122.0519416966375,-8.528156149788678],[122.05221119122274,-8.528156149788678],[122.05221119122274,-8.52824598131709],[122.05230102275115,-8.52824598131709],[122.05230102275115,-8.528425644373913],[122.0526603488648,-8.528425644373913],[122.0526603488648,-8.528515475902326],[122.05248068580798,-8.528515475902326],[122.05248068580798,-8.528605307430738],[122.05301967497844,-8.528605307430738],[122.05301967497844,-8.528695138959149],[122.05284001192163,-8.528695138959149],[122.05284001192163,-8.528784970487562],[122.05319933803527,-8.528784970487562],[122.05319933803527,-8.528964633544385],[122.05355866414892,-8.528964633544385],[122.05355866414892,-8.52914429660121],[122.05409765331939,-8.52914429660121],[122.05409765331939,-8.529234128129621],[122.05391799026256,-8.529234128129621],[122.05391799026256,-8.529323959658033],[122.05445697943304,-8.529323959658033],[122.05445697943304,-8.529503622714858],[122.05517563166033,-8.529503622714858],[122.05517563166033,-8.529593454243269],[122.0549959686035,-8.529593454243269],[122.0549959686035,-8.52968328577168],[122.05598411541604,-8.52968328577168],[122.05598411541604,-8.529773117300094],[122.05580445235923,-8.529773117300094],[122.05580445235923,-8.529862948828505],[122.05760108292746,-8.529862948828505],[122.05760108292746,-8.529773117300094],[122.05742141987064,-8.529773117300094],[122.05742141987064,-8.52968328577168],[122.05849939821158,-8.52968328577168],[122.05849939821158,-8.529413791186444],[122.05858922974,-8.529413791186444],[122.05858922974,-8.52968328577168],[122.05876889279682,-8.52968328577168],[122.05876889279682,-8.529593454243269],[122.0586790612684,-8.529593454243269],[122.0586790612684,-8.529503622714858],[122.05876889279682,-8.529503622714858],[122.05876889279682,-8.529413791186444],[122.0586790612684,-8.529413791186444],[122.0586790612684,-8.529323959658033],[122.05876889279682,-8.529323959658033],[122.05876889279682,-8.52914429660121],[122.05885872432522,-8.52914429660121],[122.05885872432522,-8.52968328577168],[122.05894855585363,-8.52968328577168],[122.05894855585363,-8.529593454243269],[122.05903838738205,-8.529593454243269],[122.05903838738205,-8.529323959658033],[122.05921805043887,-8.529323959658033],[122.05921805043887,-8.529503622714858],[122.0593977134957,-8.529503622714858],[122.0593977134957,-8.52968328577168],[122.05975703960935,-8.52968328577168],[122.05975703960935,-8.530042611885328],[122.05993670266616,-8.530042611885328],[122.05993670266616,-8.529862948828505],[122.06011636572299,-8.529862948828505],[122.06011636572299,-8.529323959658033],[122.05975703960935,-8.529323959658033],[122.05975703960935,-8.528964633544385],[122.06011636572299,-8.528964633544385],[122.06011636572299,-8.528874802015974],[122.0602061972514,-8.528874802015974],[122.0602061972514,-8.528784970487562],[122.06029602877982,-8.528784970487562],[122.06029602877982,-8.528695138959149],[122.06047569183664,-8.528695138959149],[122.06047569183664,-8.528605307430738],[122.06065535489347,-8.528605307430738],[122.06065535489347,-8.528515475902326],[122.06074518642188,-8.528515475902326],[122.06074518642188,-8.528425644373913],[122.06101468100711,-8.528425644373913],[122.06101468100711,-8.528156149788678],[122.06110451253552,-8.528156149788678],[122.06110451253552,-8.528066318260265],[122.06119434406394,-8.528066318260265],[122.06119434406394,-8.527886655203442],[122.06137400712076,-8.527886655203442],[122.06137400712076,-8.527706992146618],[122.06146383864917,-8.527706992146618],[122.06146383864917,-8.527617160618206],[122.06137400712076,-8.527617160618206],[122.06137400712076,-8.527168002976147],[122.06146383864917,-8.527168002976147],[122.06146383864917,-8.52734766603297],[122.06155367017759,-8.52734766603297],[122.06155367017759,-8.526629013805675],[122.06137400712076,-8.526629013805675],[122.06137400712076,-8.526179856163616],[122.06146383864917,-8.526179856163616],[122.06146383864917,-8.526090024635202],[122.06128417559235,-8.526090024635202],[122.06128417559235,-8.52600019310679],[122.06119434406394,-8.52600019310679],[122.06119434406394,-8.52591036157838],[122.06083501795028,-8.52591036157838],[122.06083501795028,-8.525640866993143],[122.0609248494787,-8.525640866993143],[122.0609248494787,-8.525371372407907],[122.06065535489347,-8.525371372407907],[122.06065535489347,-8.52510187782267],[122.06029602877982,-8.52510187782267],[122.06029602877982,-8.524922214765848],[122.06011636572299,-8.524922214765848],[122.06011636572299,-8.524742551709023],[122.05993670266616,-8.524742551709023],[122.05993670266616,-8.524203562538553],[122.06011636572299,-8.524203562538553],[122.06011636572299,-8.52366457336808],[122.06029602877982,-8.52366457336808],[122.06029602877982,-8.523484910311256],[122.06047569183664,-8.523484910311256],[122.06047569183664,-8.523125584197608],[122.06065535489347,-8.523125584197608],[122.06065535489347,-8.522945921140785],[122.06083501795028,-8.522945921140785],[122.06083501795028,-8.522676426555549],[122.0609248494787,-8.522676426555549],[122.0609248494787,-8.522586595027137],[122.06101468100711,-8.522586595027137],[122.06101468100711,-8.522406931970313],[122.06119434406394,-8.522406931970313],[122.06119434406394,-8.52222726891349],[122.06155367017759,-8.52222726891349],[122.06155367017759,-8.52366457336808],[122.06173333323441,-8.52366457336808],[122.06173333323441,-8.523844236424903],[122.06209265934805,-8.523844236424903],[122.06209265934805,-8.523934067953316],[122.06200282781964,-8.523934067953316],[122.06200282781964,-8.524023899481728],[122.06326046921741,-8.524023899481728],[122.06326046921741,-8.523934067953316],[122.063170637689,-8.523934067953316],[122.063170637689,-8.523844236424903],[122.06326046921741,-8.523844236424903],[122.06326046921741,-8.52366457336808],[122.06344013227424,-8.52366457336808],[122.06344013227424,-8.523844236424903],[122.06361979533106,-8.523844236424903],[122.06361979533106,-8.523484910311256],[122.06379945838788,-8.523484910311256],[122.06379945838788,-8.523125584197608],[122.0639791214447,-8.523125584197608],[122.0639791214447,-8.52276625808396],[122.06415878450153,-8.52276625808396],[122.06415878450153,-8.522586595027137],[122.06433844755836,-8.522586595027137],[122.06433844755836,-8.52222726891349],[122.06451811061518,-8.52222726891349],[122.06451811061518,-8.52186794279984],[122.06469777367201,-8.52186794279984],[122.06469777367201,-8.521149290572545],[122.06487743672882,-8.521149290572545],[122.06487743672882,-8.520969627515722],[122.06523676284247,-8.520969627515722],[122.06523676284247,-8.52132895362937],[122.0654164258993,-8.52132895362937],[122.0654164258993,-8.52186794279984],[122.06550625742771,-8.52186794279984],[122.06550625742771,-8.521957774328254],[122.06559608895613,-8.521957774328254],[122.06559608895613,-8.522047605856665],[122.06577575201294,-8.522047605856665],[122.06577575201294,-8.52222726891349],[122.06604524659818,-8.52222726891349],[122.06604524659818,-8.522317100441901],[122.06613507812659,-8.522317100441901],[122.06613507812659,-8.522406931970313],[122.06649440424025,-8.522406931970313],[122.06649440424025,-8.52222726891349],[122.06667406729707,-8.52222726891349],[122.06667406729707,-8.522406931970313],[122.06676389882547,-8.522406931970313],[122.06676389882547,-8.52222726891349],[122.06685373035388,-8.52222726891349],[122.06685373035388,-8.523395078782844],[122.06667406729707,-8.523395078782844],[122.06667406729707,-8.523484910311256],[122.06685373035388,-8.523484910311256],[122.06685373035388,-8.523574741839669],[122.06667406729707,-8.523574741839669],[122.06667406729707,-8.523934067953316],[122.06703339341071,-8.523934067953316],[122.06703339341071,-8.52411373101014],[122.06721305646754,-8.52411373101014],[122.06721305646754,-8.524293394066964],[122.06757238258119,-8.524293394066964],[122.06757238258119,-8.524383225595376],[122.06712322493912,-8.524383225595376],[122.06712322493912,-8.524473057123787],[122.06739271952436,-8.524473057123787],[122.06739271952436,-8.5245628886522],[122.06748255105278,-8.5245628886522],[122.06748255105278,-8.524473057123787],[122.0691893500926,-8.524473057123787],[122.0691893500926,-8.524383225595376],[122.06900968703577,-8.524383225595376],[122.06900968703577,-8.524293394066964],[122.0691893500926,-8.524293394066964],[122.0691893500926,-8.523035752669196],[122.06972833926307,-8.523035752669196],[122.06972833926307,-8.522856089612372],[122.07053682301878,-8.522856089612372],[122.07053682301878,-8.522676426555549],[122.0714351383029,-8.522676426555549],[122.0714351383029,-8.523395078782844],[122.07134530677449,-8.523395078782844],[122.07134530677449,-8.523215415726021],[122.07125547524608,-8.523215415726021],[122.07125547524608,-8.523754404896492],[122.0714351383029,-8.523754404896492],[122.0714351383029,-8.52411373101014],[122.07161480135973,-8.52411373101014],[122.07161480135973,-8.524203562538553],[122.0714351383029,-8.524203562538553],[122.0714351383029,-8.524293394066964],[122.07161480135973,-8.524293394066964],[122.07161480135973,-8.524473057123787],[122.07170463288813,-8.524473057123787],[122.07170463288813,-8.524293394066964],[122.07179446441654,-8.524293394066964],[122.07179446441654,-8.5245628886522],[122.07188429594495,-8.5245628886522],[122.07188429594495,-8.524473057123787],[122.07197412747337,-8.524473057123787],[122.07197412747337,-8.524652720180612],[122.0721537905302,-8.524652720180612],[122.0721537905302,-8.524832383237435],[122.07233345358702,-8.524832383237435],[122.07233345358702,-8.52501204629426],[122.07251311664385,-8.52501204629426],[122.07251311664385,-8.525191709351084],[122.07269277970066,-8.525191709351084],[122.07269277970066,-8.525281540879496],[122.07278261122907,-8.525281540879496],[122.07278261122907,-8.525371372407907],[122.07323176887114,-8.525371372407907],[122.07323176887114,-8.525551035464732],[122.0737707580416,-8.525551035464732],[122.0737707580416,-8.525730698521555],[122.07413008415526,-8.525730698521555],[122.07413008415526,-8.525820530049968],[122.07386058957002,-8.525820530049968],[122.07386058957002,-8.52591036157838],[122.07413008415526,-8.52591036157838],[122.07413008415526,-8.526090024635202],[122.07448941026891,-8.526090024635202],[122.07448941026891,-8.526269687692027],[122.07484873638255,-8.526269687692027],[122.07484873638255,-8.526359519220438],[122.07493856791096,-8.526359519220438],[122.07493856791096,-8.526269687692027],[122.07502839943938,-8.526269687692027],[122.07502839943938,-8.52644935074885],[122.07538772555303,-8.52644935074885],[122.07538772555303,-8.526539182277263],[122.07547755708144,-8.526539182277263],[122.07547755708144,-8.526629013805675],[122.07754368223492,-8.526629013805675],[122.07754368223492,-8.5268086768625],[122.07772334529173,-8.5268086768625],[122.07772334529173,-8.526988339919322],[122.07790300834856,-8.526988339919322],[122.07790300834856,-8.527168002976147],[122.07808267140538,-8.527168002976147],[122.07808267140538,-8.52734766603297],[122.07826233446221,-8.52734766603297],[122.07826233446221,-8.527706992146618],[122.07844199751904,-8.527706992146618],[122.07844199751904,-8.528066318260265],[122.07853182904745,-8.528066318260265],[122.07853182904745,-8.527976486731854],[122.07862166057585,-8.527976486731854],[122.07862166057585,-8.528425644373913],[122.07880132363267,-8.528425644373913],[122.07880132363267,-8.528784970487562],[122.0789809866895,-8.528784970487562],[122.0789809866895,-8.52914429660121],[122.07916064974633,-8.52914429660121],[122.07916064974633,-8.529323959658033],[122.07943014433157,-8.529323959658033],[122.07943014433157,-8.529503622714858],[122.07960980738838,-8.529503622714858],[122.07960980738838,-8.52968328577168],[122.0797894704452,-8.52968328577168],[122.0797894704452,-8.529862948828505],[122.07996913350203,-8.529862948828505],[122.07996913350203,-8.5305816010558],[122.07987930197362,-8.5305816010558],[122.07987930197362,-8.530671432584212],[122.07996913350203,-8.530671432584212],[122.07996913350203,-8.530761264112625],[122.0797894704452,-8.530761264112625],[122.0797894704452,-8.531120590226273],[122.07987930197362,-8.531120590226273],[122.07987930197362,-8.530851095641037],[122.07996913350203,-8.530851095641037],[122.07996913350203,-8.531300253283096],[122.07987930197362,-8.531300253283096],[122.07987930197362,-8.531390084811507],[122.0796996389168,-8.531390084811507],[122.0796996389168,-8.531569747868332],[122.07960980738838,-8.531569747868332],[122.07960980738838,-8.531659579396743],[122.07951997585998,-8.531659579396743],[122.07951997585998,-8.532108737038804],[122.07943014433157,-8.532108737038804],[122.07943014433157,-8.531659579396743],[122.07934031280315,-8.531659579396743],[122.07934031280315,-8.532917220794511],[122.07943014433157,-8.532917220794511],[122.07943014433157,-8.532647726209275],[122.07951997585998,-8.532647726209275],[122.07951997585998,-8.533186715379747],[122.07960980738838,-8.533186715379747],[122.07960980738838,-8.533007052322922],[122.0796996389168,-8.533007052322922],[122.0796996389168,-8.53336637843657],[122.07987930197362,-8.53336637843657],[122.07987930197362,-8.533546041493395],[122.08032845961569,-8.533546041493395],[122.08032845961569,-8.53372570455022],[122.08023862808727,-8.53372570455022],[122.08023862808727,-8.533995199135454],[122.0804182911441,-8.533995199135454],[122.0804182911441,-8.534085030663867],[122.08050812267251,-8.534085030663867],[122.08050812267251,-8.534174862192279],[122.08032845961569,-8.534174862192279],[122.08032845961569,-8.53426469372069],[122.08023862808727,-8.53426469372069],[122.08023862808727,-8.534624019834338],[122.08005896503045,-8.534624019834338],[122.08005896503045,-8.535522335118458],[122.07996913350203,-8.535522335118458],[122.07996913350203,-8.53516300900481],[122.07987930197362,-8.53516300900481],[122.07987930197362,-8.536690144987814],[122.07996913350203,-8.536690144987814],[122.07996913350203,-8.5366003134594],[122.08005896503045,-8.5366003134594],[122.08005896503045,-8.536959639573048],[122.0804182911441,-8.536959639573048],[122.0804182911441,-8.537049471101462],[122.08050812267251,-8.537049471101462],[122.08050812267251,-8.537139302629873],[122.08059795420091,-8.537139302629873],[122.08059795420091,-8.537229134158284],[122.08077761725774,-8.537229134158284],[122.08077761725774,-8.53740879721511],[122.08086744878615,-8.53740879721511],[122.08086744878615,-8.53749862874352],[122.08095728031456,-8.53749862874352],[122.08095728031456,-8.537857954857168],[122.0812267748998,-8.537857954857168],[122.0812267748998,-8.53794778638558],[122.08104711184298,-8.53794778638558],[122.08104711184298,-8.538037617913993],[122.08095728031456,-8.538037617913993],[122.08095728031456,-8.538217280970816],[122.08086744878615,-8.538217280970816],[122.08086744878615,-8.53839694402764],[122.08077761725774,-8.53839694402764],[122.08077761725774,-8.538486775556052],[122.08068778572932,-8.538486775556052],[122.08068778572932,-8.538576607084464],[122.08059795420091,-8.538576607084464],[122.08059795420091,-8.538756270141288],[122.08050812267251,-8.538756270141288],[122.08050812267251,-8.538935933198111],[122.08023862808727,-8.538935933198111],[122.08023862808727,-8.539115596254936],[122.08032845961569,-8.539115596254936],[122.08032845961569,-8.53929525931176],[122.08050812267251,-8.53929525931176],[122.08050812267251,-8.539205427783347],[122.08059795420091,-8.539205427783347],[122.08059795420091,-8.539654585425408],[122.08077761725774,-8.539654585425408],[122.08077761725774,-8.539834248482231],[122.08068778572932,-8.539834248482231],[122.08068778572932,-8.539924080010643],[122.08059795420091,-8.539924080010643],[122.08059795420091,-8.540193574595879],[122.0804182911441,-8.540193574595879],[122.0804182911441,-8.540373237652704],[122.08050812267251,-8.540373237652704],[122.08050812267251,-8.540463069181115],[122.0804182911441,-8.540463069181115],[122.0804182911441,-8.540552900709526],[122.08068778572932,-8.540552900709526],[122.08068778572932,-8.54064273223794],[122.08059795420091,-8.54064273223794],[122.08059795420091,-8.540732563766351],[122.08077761725774,-8.540732563766351],[122.08077761725774,-8.541451215993646],[122.08086744878615,-8.541451215993646],[122.08086744878615,-8.54118172140841],[122.08095728031456,-8.54118172140841],[122.08095728031456,-8.541271552936823],[122.08104711184298,-8.541271552936823],[122.08104711184298,-8.541361384465235],[122.08113694337139,-8.541361384465235],[122.08113694337139,-8.541271552936823],[122.08131660642822,-8.541271552936823],[122.08131660642822,-8.541451215993646],[122.08149626948504,-8.541451215993646],[122.08149626948504,-8.54208003669253],[122.08140643795663,-8.54208003669253],[122.08140643795663,-8.542169868220942],[122.08149626948504,-8.542169868220942],[122.08149626948504,-8.542349531277766],[122.08212509018392,-8.542349531277766],[122.08212509018392,-8.542259699749355],[122.08221492171234,-8.542259699749355],[122.08221492171234,-8.542349531277766],[122.08248441629758,-8.542349531277766],[122.08248441629758,-8.542439362806178],[122.08257424782597,-8.542439362806178],[122.08257424782597,-8.542619025863003],[122.08266407935439,-8.542619025863003],[122.08266407935439,-8.542798688919826],[122.0827539108828,-8.542798688919826],[122.0827539108828,-8.542888520448239],[122.08284374241121,-8.542888520448239],[122.08284374241121,-8.542708857391414],[122.08293357393963,-8.542708857391414],[122.08293357393963,-8.542888520448239],[122.08320306852487,-8.542888520448239],[122.08320306852487,-8.543068183505062],[122.0833827315817,-8.543068183505062],[122.0833827315817,-8.543247846561886],[122.0834725631101,-8.543247846561886],[122.0834725631101,-8.543337678090298],[122.0835623946385,-8.543337678090298],[122.0835623946385,-8.54342750961871],[122.08374205769533,-8.54342750961871],[122.08374205769533,-8.543247846561886],[122.08383188922375,-8.543247846561886],[122.08383188922375,-8.543337678090298],[122.08392172075216,-8.543337678090298],[122.08392172075216,-8.543247846561886],[122.08455054145104,-8.543247846561886],[122.08455054145104,-8.543158015033473],[122.08464037297945,-8.543158015033473],[122.08464037297945,-8.543247846561886],[122.08490986756469,-8.543247846561886],[122.08490986756469,-8.543158015033473],[122.0849996990931,-8.543158015033473],[122.0849996990931,-8.543068183505062],[122.08526919367834,-8.543068183505062],[122.08526919367834,-8.54297835197665],[122.08535902520676,-8.54297835197665],[122.08535902520676,-8.542888520448239],[122.0857183513204,-8.542888520448239],[122.0857183513204,-8.543158015033473],[122.08580818284881,-8.543158015033473],[122.08580818284881,-8.543068183505062],[122.08589801437722,-8.543068183505062],[122.08589801437722,-8.543247846561886],[122.08580818284881,-8.543247846561886],[122.08580818284881,-8.543337678090298],[122.08589801437722,-8.543337678090298],[122.08589801437722,-8.54351734114712],[122.08598784590563,-8.54351734114712],[122.08598784590563,-8.54342750961871],[122.08607767743405,-8.54342750961871],[122.08607767743405,-8.54351734114712],[122.08625734049087,-8.54351734114712],[122.08625734049087,-8.543337678090298],[122.08697599271817,-8.543337678090298],[122.08697599271817,-8.543158015033473],[122.0872454873034,-8.543158015033473],[122.0872454873034,-8.543068183505062],[122.08733531883182,-8.543068183505062],[122.08733531883182,-8.54297835197665],[122.08841329717276,-8.54297835197665],[122.08841329717276,-8.543158015033473],[122.08859296022958,-8.543158015033473],[122.08859296022958,-8.543337678090298],[122.08868279175799,-8.543337678090298],[122.08868279175799,-8.543247846561886],[122.0887726232864,-8.543247846561886],[122.0887726232864,-8.543158015033473],[122.0894912755137,-8.543158015033473],[122.0894912755137,-8.543068183505062],[122.08958110704211,-8.543068183505062],[122.08958110704211,-8.54297835197665],[122.08976077009893,-8.54297835197665],[122.08976077009893,-8.542798688919826],[122.08994043315576,-8.542798688919826],[122.08994043315576,-8.542619025863003],[122.09003026468417,-8.542619025863003],[122.09003026468417,-8.54252919433459],[122.09012009621259,-8.54252919433459],[122.09012009621259,-8.542439362806178],[122.090209927741,-8.542439362806178],[122.090209927741,-8.542349531277766],[122.09029975926941,-8.542349531277766],[122.09029975926941,-8.542259699749355],[122.09047942232623,-8.542259699749355],[122.09047942232623,-8.54208003669253],[122.09065908538305,-8.54208003669253],[122.09065908538305,-8.541810542107294],[122.09074891691147,-8.541810542107294],[122.09074891691147,-8.541720710578883],[122.09110824302512,-8.541720710578883],[122.09110824302512,-8.541630879050471],[122.09119807455353,-8.541630879050471],[122.09119807455353,-8.541541047522058],[122.0910184114967,-8.541541047522058],[122.0910184114967,-8.541451215993646],[122.09119807455353,-8.541451215993646],[122.09119807455353,-8.54118172140841],[122.09137773761036,-8.54118172140841],[122.09137773761036,-8.540822395294763],[122.09146756913876,-8.540822395294763],[122.09146756913876,-8.540912226823174],[122.09155740066717,-8.540912226823174],[122.09155740066717,-8.540552900709526],[122.091737063724,-8.540552900709526],[122.091737063724,-8.540283406124292],[122.09191672678082,-8.540283406124292],[122.09191672678082,-8.540103743067467],[122.091737063724,-8.540103743067467],[122.091737063724,-8.540013911539056],[122.09191672678082,-8.540013911539056],[122.09191672678082,-8.538935933198111],[122.091737063724,-8.538935933198111],[122.091737063724,-8.538756270141288],[122.09155740066717,-8.538756270141288],[122.09155740066717,-8.538576607084464],[122.09137773761036,-8.538576607084464],[122.09137773761036,-8.53839694402764],[122.0910184114967,-8.53839694402764],[122.0910184114967,-8.538576607084464],[122.09083874843988,-8.538576607084464],[122.09083874843988,-8.53839694402764],[122.09047942232623,-8.53839694402764],[122.09047942232623,-8.538217280970816],[122.09012009621259,-8.538217280970816],[122.09012009621259,-8.538037617913993],[122.08994043315576,-8.538037617913993],[122.08994043315576,-8.537678291800345],[122.0894014439853,-8.537678291800345],[122.0894014439853,-8.537588460271932],[122.0894912755137,-8.537588460271932],[122.0894912755137,-8.53749862874352],[122.0894014439853,-8.53749862874352],[122.0894014439853,-8.53740879721511],[122.0894912755137,-8.53740879721511],[122.0894912755137,-8.537318965686698],[122.0894014439853,-8.537318965686698],[122.0894014439853,-8.534444356777515],[122.08931161245688,-8.534444356777515],[122.08931161245688,-8.53426469372069],[122.08904211787164,-8.53426469372069],[122.08904211787164,-8.534085030663867],[122.08886245481482,-8.534085030663867],[122.08886245481482,-8.53336637843657],[122.0887726232864,-8.53336637843657],[122.0887726232864,-8.533546041493395],[122.08868279175799,-8.533546041493395],[122.08868279175799,-8.533186715379747],[122.08850312870116,-8.533186715379747],[122.08850312870116,-8.533007052322922],[122.08832346564435,-8.533007052322922],[122.08832346564435,-8.532647726209275],[122.08850312870116,-8.532647726209275],[122.08850312870116,-8.532468063152452],[122.08832346564435,-8.532468063152452],[122.08832346564435,-8.53192907398198],[122.08823363411594,-8.53192907398198],[122.08823363411594,-8.531839242453568],[122.08814380258752,-8.531839242453568],[122.08814380258752,-8.531569747868332],[122.0879641395307,-8.531569747868332],[122.0879641395307,-8.531210421754684],[122.08814380258752,-8.531210421754684],[122.08814380258752,-8.531120590226273],[122.08823363411594,-8.531120590226273],[122.08823363411594,-8.53103075869786],[122.08832346564435,-8.53103075869786],[122.08832346564435,-8.530851095641037],[122.08850312870116,-8.530851095641037],[122.08850312870116,-8.530671432584212],[122.08859296022958,-8.530671432584212],[122.08859296022958,-8.5305816010558],[122.08868279175799,-8.5305816010558],[122.08868279175799,-8.530312106470564],[122.08886245481482,-8.530312106470564],[122.08886245481482,-8.529952780356917],[122.08895228634323,-8.529952780356917],[122.08895228634323,-8.529862948828505],[122.08886245481482,-8.529862948828505],[122.08886245481482,-8.529413791186444],[122.0894014439853,-8.529413791186444],[122.0894014439853,-8.529593454243269],[122.08958110704211,-8.529593454243269],[122.08958110704211,-8.530132443413741],[122.08976077009893,-8.530132443413741],[122.08976077009893,-8.530491769527389],[122.08994043315576,-8.530491769527389],[122.08994043315576,-8.530851095641037],[122.09012009621259,-8.530851095641037],[122.09012009621259,-8.531210421754684],[122.090209927741,-8.531210421754684],[122.090209927741,-8.53103075869786],[122.09029975926941,-8.53103075869786],[122.09029975926941,-8.531390084811507],[122.09047942232623,-8.531390084811507],[122.09047942232623,-8.531749410925157],[122.09065908538305,-8.531749410925157],[122.09065908538305,-8.53192907398198],[122.09083874843988,-8.53192907398198],[122.09083874843988,-8.532108737038804],[122.0910184114967,-8.532108737038804],[122.0910184114967,-8.532288400095627],[122.09137773761036,-8.532288400095627],[122.09137773761036,-8.532468063152452],[122.0931743681786,-8.532468063152452],[122.0931743681786,-8.532288400095627],[122.09407268346271,-8.532288400095627],[122.09407268346271,-8.532198568567216],[122.09389302040589,-8.532198568567216],[122.09389302040589,-8.532108737038804],[122.09443200957635,-8.532108737038804],[122.09443200957635,-8.53192907398198],[122.09515066180366,-8.53192907398198],[122.09515066180366,-8.531839242453568],[122.09497099874683,-8.531839242453568],[122.09497099874683,-8.531749410925157],[122.09533032486048,-8.531749410925157],[122.09533032486048,-8.531569747868332],[122.09568965097412,-8.531569747868332],[122.09568965097412,-8.531390084811507],[122.09613880861619,-8.531390084811507],[122.09613880861619,-8.531210421754684],[122.09667779778665,-8.531210421754684],[122.09667779778665,-8.531120590226273],[122.09649813472983,-8.531120590226273],[122.09649813472983,-8.53103075869786],[122.09685746084348,-8.53103075869786],[122.09685746084348,-8.530851095641037],[122.09721678695713,-8.530851095641037],[122.09721678695713,-8.530671432584212],[122.09739645001395,-8.530671432584212],[122.09739645001395,-8.530491769527389],[122.0977557761276,-8.530491769527389],[122.0977557761276,-8.529952780356917],[122.09757611307077,-8.529952780356917],[122.09757611307077,-8.529593454243269],[122.0977557761276,-8.529593454243269],[122.0977557761276,-8.529413791186444],[122.09802527071284,-8.529413791186444],[122.09802527071284,-8.529323959658033],[122.09811510224125,-8.529323959658033],[122.09811510224125,-8.529234128129621],[122.09883375446854,-8.529234128129621],[122.09883375446854,-8.529054465072797],[122.09955240669584,-8.529054465072797],[122.09955240669584,-8.529234128129621],[122.09991173280949,-8.529234128129621],[122.09991173280949,-8.529054465072797],[122.1029660047755,-8.529054465072797],[122.1029660047755,-8.528964633544385],[122.10188802643455,-8.528964633544385],[122.10188802643455,-8.528874802015974],[122.10359482547437,-8.528874802015974],[122.10359482547437,-8.528964633544385],[122.10305583630391,-8.528964633544385],[122.10305583630391,-8.529054465072797],[122.10386432005961,-8.529054465072797],[122.10386432005961,-8.528964633544385],[122.1037744885312,-8.528964633544385],[122.1037744885312,-8.528874802015974],[122.10467280381532,-8.528874802015974],[122.10467280381532,-8.529054465072797],[122.10494229840056,-8.529054465072797]],[[122.03559235846653,-8.525730698521555],[122.03568218999494,-8.525730698521555],[122.03568218999494,-8.525820530049968],[122.03559235846653,-8.525820530049968],[122.03559235846653,-8.526179856163616],[122.03577202152336,-8.526179856163616],[122.03577202152336,-8.526269687692027],[122.03559235846653,-8.526269687692027],[122.03559235846653,-8.52644935074885],[122.03568218999494,-8.52644935074885],[122.03568218999494,-8.526539182277263],[122.03559235846653,-8.526539182277263],[122.03559235846653,-8.528874802015974],[122.03649067375065,-8.528874802015974],[122.03649067375065,-8.528695138959149],[122.0368499998643,-8.528695138959149],[122.0368499998643,-8.528605307430738],[122.03676016833589,-8.528605307430738],[122.03676016833589,-8.528515475902326],[122.03738898903477,-8.528515475902326],[122.03738898903477,-8.528425644373913],[122.03720932597794,-8.528425644373913],[122.03720932597794,-8.528335812845501],[122.03729915750635,-8.528335812845501],[122.03729915750635,-8.528156149788678],[122.03720932597794,-8.528156149788678],[122.03720932597794,-8.527886655203442],[122.03729915750635,-8.527886655203442],[122.03729915750635,-8.528066318260265],[122.03738898903477,-8.528066318260265],[122.03738898903477,-8.528156149788678],[122.03747882056318,-8.528156149788678],[122.03747882056318,-8.528335812845501],[122.0375686520916,-8.528335812845501],[122.0375686520916,-8.528156149788678],[122.03765848362,-8.528156149788678],[122.03765848362,-8.528066318260265],[122.0375686520916,-8.528066318260265],[122.0375686520916,-8.527976486731854],[122.03774831514842,-8.527976486731854],[122.03774831514842,-8.528156149788678],[122.03810764126206,-8.528156149788678],[122.03810764126206,-8.528066318260265],[122.03792797820525,-8.528066318260265],[122.03792797820525,-8.527976486731854],[122.03846696737571,-8.527976486731854],[122.03846696737571,-8.52779682367503],[122.03864663043254,-8.52779682367503],[122.03864663043254,-8.527617160618206],[122.03900595654618,-8.527617160618206],[122.03900595654618,-8.527527329089795],[122.03909578807459,-8.527527329089795],[122.03909578807459,-8.527437497561381],[122.03945511418824,-8.527437497561381],[122.03945511418824,-8.52734766603297],[122.03927545113142,-8.52734766603297],[122.03927545113142,-8.527257834504558],[122.03963477724507,-8.527257834504558],[122.03963477724507,-8.527078171447734],[122.0398144403019,-8.527078171447734],[122.0398144403019,-8.52689850839091],[122.03999410335871,-8.52689850839091],[122.03999410335871,-8.5268086768625],[122.03990427183031,-8.5268086768625],[122.03990427183031,-8.526718845334086],[122.03999410335871,-8.526718845334086],[122.03999410335871,-8.526629013805675],[122.04008393488712,-8.526629013805675],[122.04008393488712,-8.526718845334086],[122.04017376641553,-8.526718845334086],[122.04017376641553,-8.526539182277263],[122.04035342947236,-8.526539182277263],[122.04035342947236,-8.526179856163616],[122.04053309252919,-8.526179856163616],[122.04053309252919,-8.52600019310679],[122.0406229240576,-8.52600019310679],[122.0406229240576,-8.526179856163616],[122.04071275558601,-8.526179856163616],[122.04071275558601,-8.525820530049968],[122.04089241864284,-8.525820530049968],[122.04089241864284,-8.525281540879496],[122.04071275558601,-8.525281540879496],[122.04071275558601,-8.52510187782267],[122.04053309252919,-8.52510187782267],[122.04053309252919,-8.524383225595376],[122.0406229240576,-8.524383225595376],[122.0406229240576,-8.524473057123787],[122.04071275558601,-8.524473057123787],[122.04071275558601,-8.52411373101014],[122.04080258711443,-8.52411373101014],[122.04080258711443,-8.524203562538553],[122.04089241864284,-8.524203562538553],[122.04089241864284,-8.523305247254433],[122.04080258711443,-8.523305247254433],[122.04080258711443,-8.523395078782844],[122.04071275558601,-8.523395078782844],[122.04071275558601,-8.523125584197608],[122.04089241864284,-8.523125584197608],[122.04089241864284,-8.52276625808396],[122.04116191322807,-8.52276625808396],[122.04116191322807,-8.522676426555549]]]}}]}